OBJECT_NAME,OBJECT_ID,EPOCH,MEAN_MOTION,ECCENTRICITY,INCLINATION,RA_OF_ASC_NODE,ARG_OF_PERICENTER,MEAN_ANOMALY,EPHEMERIS_TYPE,CLASSIFICATION_TYPE,NORAD_CAT_ID,ELEMENT_SET_NO,REV_AT_EPOCH,BSTAR,MEAN_MOTION_DOT,MEAN_MOTION_DDOT
PERSEUS-M1,2014-033AF,2026-07-05T02:23:18.839904,14.95692315,.00103093,97.9646,130.5264,234.1657,125.8606,0,U,40039,999,65331,.17089698E-3,.1842E-4,0
POLYITAN-1,2014-033AJ,2026-07-05T01:27:55.081152,15.33942082,.0008541,98.0935,214.0203,92.3372,267.8847,0,U,40042,999,65633,.9971289E-3,.32793E-3,0
TIGRISAT,2014-033AK,2026-07-04T08:43:01.388064,14.85224756,.00495846,97.7854,334.9834,19.9094,340.4041,0,U,40043,999,64817,.24133892E-3,.206E-4,0
AEROCUBE 6A,2014-033AM,2026-07-04T22:09:04.775616,14.98273627,.00375261,97.7236,352.6854,316.1698,43.6548,0,U,40045,999,64927,.73231744E-3,.878E-4,0
AEROCUBE 6B,2014-033AN,2026-07-04T16:59:19.634496,14.99734337,.00377699,97.7222,352.3012,307.3832,52.3954,0,U,40046,999,64938,.78733604E-3,.9815E-4,0
CANX-4,2014-034C,2026-07-05T02:53:00.616128,14.81299944,.00118712,98.3098,62.0898,318.3927,41.6381,0,U,40055,999,64718,.17945557E-3,.1344E-4,0
CANX-5,2014-034D,2026-07-04T09:00:29.398464,14.81314200,.00119023,98.3101,61.3623,321.2001,38.8355,0,U,40056,999,63788,.15410853E-3,.1146E-4,0
UKUBE-1,2014-037F,2026-07-04T22:48:40.755744,15.13840631,.00032765,98.4244,191.0920,104.6577,255.5016,0,U,40074,999,65124,.8055371E-3,.14502E-3,0
BRITE-PL2 (HEWELIUSZ),2014-049B,2026-07-05T05:57:26.490528,14.94663268,.00149627,97.9113,298.3892,53.5962,306.6636,0,U,40119,999,64414,.24959488E-3,.2652E-4,0
AEROCUBE 5C,2015-058B,2026-07-05T01:45:51.825600,14.91534834,.01316723,64.7653,206.9434,56.3093,305.0491,0,U,40965,999,36832,.32938687E-3,.3733E-4,0
AEROCUBE 7,2015-058C,2026-07-05T00:26:45.879648,14.95847299,.01213549,64.7605,188.9588,54.6697,306.5691,0,U,40966,999,36862,.50949875E-3,.645E-4,0
FOX-1A (AO-85),2015-058D,2026-07-04T17:23:15.140256,14.91048256,.01315597,64.7733,224.4803,49.7898,311.4638,0,U,40967,999,11618,.31797294E-3,.3548E-4,0
SINOD-D 1,2015-058E,2026-07-05T01:28:12.376704,14.96023800,.01202524,64.7733,202.9332,46.0478,315.0480,0,U,40968,999,11933,.48016207E-3,.6081E-4,0
SNAP-3 ALICE,2015-058G,2026-07-05T00:47:40.594272,15.64924295,.00234386,64.7494,42.0388,357.0184,3.0820,0,U,40970,999,11967,.20116202E-2,.205794E-2,0
LMRST-SAT,2015-058H,2026-07-05T02:05:00.558528,14.90666707,.01331522,64.7739,219.7260,51.6676,309.6316,0,U,40971,999,11622,.31030107E-3,.3436E-4,0
SNAP-3 EDDIE,2015-058J,2026-07-05T00:13:11.728992,15.66206085,.00241806,64.7406,32.7134,359.7693,0.3440,0,U,40972,999,12181,.21016198E-2,.22713E-2,0
PROPCUBE 3,2015-058K,2026-07-05T00:16:26.947200,14.94360477,.01250316,64.7667,196.8417,52.9270,308.3197,0,U,40973,999,11746,.44442565E-3,.5425E-4,0
BISONSAT,2015-058L,2026-07-04T05:54:21.382848,15.16671744,.00809582,64.7584,118.4723,40.4413,320.2690,0,U,40974,999,11820,.99021779E-3,.21042E-3,0
SNAP-3 JIMI,2015-058M,2026-07-04T23:05:25.515168,15.02503647,.01071229,64.7642,163.5253,48.3108,312.7115,0,U,40975,999,11689,.76483078E-3,.11381E-3,0
PROPCUBE 1 (FLORA),2015-058N,2026-07-04T20:33:40.514688,14.89296899,.01317751,64.7734,240.4711,54.0396,307.2853,0,U,40976,999,11889,.29219022E-3,.3094E-4,0
SINOD-D 3,2015-058P,2026-07-04T20:17:00.539232,14.94120649,.01203328,64.7707,220.6749,51.1355,310.0421,0,U,40977,999,11739,.42947365E-3,.5141E-4,0
RAVAN,2016-067B,2026-07-04T22:14:52.743840,15.56580303,.00016297,97.9849,77.5701,302.2745,57.8350,0,U,41849,999,53045,.13595014E-2,.97526E-3,0
CELTEE 1,2016-067C,2026-07-04T14:08:23.087904,15.19863880,.00018975,98.0647,53.3426,123.3801,236.7614,0,U,41850,999,52852,.46272408E-3,.9856E-4,0
OPTICUBE 04,2016-067D,2026-07-05T04:09:54.915264,15.09743515,.00168647,98.0685,39.3947,59.8826,300.4071,0,U,41851,999,52788,.19531161E-3,.3089E-4,0
AEROCUBE 8D,2016-067E,2026-07-04T21:03:19.362816,15.24661624,.00049529,98.0654,57.3945,81.4117,278.7680,0,U,41852,999,52876,.54044109E-3,.13286E-3,0
AEROCUBE 8C,2016-067F,2026-07-04T13:42:38.876256,15.24906566,.00053688,98.0528,54.2705,18.9330,341.2104,0,U,41853,999,52871,.52184569E-3,.12921E-3,0
CORVUS BC2,2017-042X,2026-07-04T22:20:40.282656,15.06412923,.00139485,97.4086,346.5928,55.1467,305.1070,0,U,42846,999,48973,.40615063E-3,.594E-4,0
CORVUS BC1,2017-042Y,2026-07-04T23:45:43.576416,15.06581528,.00125003,97.4124,347.4755,33.9009,326.3015,0,U,42847,999,48977,.37551932E-3,.551E-4,0
MAKERSAT 0,2017-073D,2026-07-04T17:54:01.284480,15.32706077,.01048861,97.4599,68.4054,209.6010,149.9270,0,U,43016,999,46915,.85666587E-3,.32255E-3,0
SIRION PATHFINDER-2,2018-099B,2026-07-04T16:32:10.355136,15.14709218,.00075304,97.4239,234.3310,231.1212,128.9350,0,U,43759,999,41527,.43096161E-3,.7924E-4,0
